{
    "name": {
        "title": "Mr.",
        "first": "John",
        "last": "Doe",
        "middle": "Charles"
    },
    "occupation": "Director",
    "race": "Asian",
    "nationality": "American",
    "placeOfBirth": "Rapid City, SD",
    "active": true,
    "siblings": 1,
    "dateOfBirth": Date("1965-02-29"),
    "hobbies": ["Reading", "Blogging", "Baseball", "Legos"],
    "luckyNumbers": [1, 3, 5, 9],
    "address": {
        "home": {
            "current": {
                "street": "323 Chauncey St",
                "city": "Brooklyn",
                "state": "NY",
                "zip": "11233",
                "start": Date("1992-10-31")
            },
            "previous": [
                {
                    "street": "323 Chauncey St",
                    "city": "Brooklyn",
                    "state": "NY",
                    "zip": "11233",
                    "start": Date("1982-1-1"),
                    "end": Date("1992-10-30")
            },
                {
                    "street": "323 Chauncey St",
                    "city": "Brooklyn",
                    "state": "NY",
                    "zip": "11233",
                    "start": Date("1977-1-1"),
                    "end": Date("1981-12-31")
            },
                {
                    "street": "323 Chauncey St",
                    "city": "Brooklyn",
                    "state": "NY",
                    "zip": "11233",
                    "start": Date("1972-1-1"),
                    "end": Date("1976-12-31")
            }
            ]
        },
        "office": [
            {
                "street": "285 Fulton St",
                "city": "New York",
                "state": "NY",
                "zip": "10007",
                "current": true,
                "start": Date("1991-1-1")
        },
            {
                "street": "323 Chauncey St",
                "city": "Brooklyn",
                "state": "NY",
                "zip": "11233",
                "current": true,
                "start": Date("1989-1-1")
        }, {
                "street": "1855 Broadway",
                "city": "New York",
                "state": "NY",
                "zip": "10023",
                "current": false,
                "start": Date("1981-1-1"),
                "end": Date("1990-12-31")
        }, {
                "street": "1 Police Plaza Path",
                "city": "New York",
                "state": "NY",
                "zip": "10007",
                "start": Date("1971-1-1"),
                "end": Date("1980-12-31")
        }
        ]
    }
}